{
    "links": {
        "self": "http://www.neowsapp.com/rest/v1/neo/3991554?api_key=iIulBulltgU6a56xZRHN4H3l9WmuAYTsLGpBGhQ2"
    },
    "id": "3991554",
    "neo_reference_id": "3991554",
    "name": "(2020 CB2)",
    "designation": "2020 CB2",
    "nasa_jpl_url": "http://ssd.jpl.nasa.gov/sbdb.cgi?sstr=3991554",
    "absolute_magnitude_h": 20.274,
    "estimated_diameter": {
        "kilometers": {
            "estimated_diameter_min": 0.2342906604,
            "estimated_diameter_max": 0.5238898432
        },
        "meters": {
            "estimated_diameter_min": 234.2906604421,
            "estimated_diameter_max": 523.8898432418
        },
        "miles": {
            "estimated_diameter_min": 0.145581422,
            "estimated_diameter_max": 0.3255299558
        },
        "feet": {
            "estimated_diameter_min": 768.6701704048,
            "estimated_diameter_max": 1718.7987533014
        }
    },
    "is_potentially_hazardous_asteroid": true,
    "close_approach_data": [
        {
            "close_approach_date": "2019-11-20",
            "close_approach_date_full": "2019-Nov-20 20:14",
            "epoch_date_close_approach": 1574280840000,
            "relative_velocity": {
                "kilometers_per_second": "17.0887490719",
                "kilometers_per_hour": "61519.4966587417",
                "miles_per_hour": "38225.822798872"
            },
            "miss_distance": {
                "astronomical": "0.4850676579",
                "lunar": "188.6913189231",
                "kilometers": "72565088.427728673",
                "miles": "45089855.1046267674"
            },
            "orbiting_body": "Earth"
        },
        {
            "close_approach_date": "2020-08-08",
            "close_approach_date_full": "2020-Aug-08 13:04",
            "epoch_date_close_approach": 1596891840000,
            "relative_velocity": {
                "kilometers_per_second": "17.8437410814",
                "kilometers_per_hour": "64237.4678928823",
                "miles_per_hour": "39914.6644248857"
            },
            "miss_distance": {
                "astronomical": "0.0717389149",
                "lunar": "27.9064378961",
                "kilometers": "10731988.865151263",
                "miles": "6668548.6560949094"
            },
            "orbiting_body": "Venus"
        },
        {
            "close_approach_date": "2088-03-21",
            "close_approach_date_full": "2088-Mar-21 13:58",
            "epoch_date_close_approach": 3730715880000,
            "relative_velocity": {
                "kilometers_per_second": "14.1637552224",
                "kilometers_per_hour": "50989.5188006123",
                "miles_per_hour": "31682.9040569693"
            },
            "miss_distance": {
                "astronomical": "0.0908363189",
                "lunar": "35.3353280521",
                "kilometers": "13588919.826080743",
                "miles": "8443763.2374225334"
            },
            "orbiting_body": "Earth"
        },
        {
            "close_approach_date": "2088-09-06",
            "close_approach_date_full": "2088-Sep-06 04:57",
            "epoch_date_close_approach": 3745285020000,
            "relative_velocity": {
                "kilometers_per_second": "18.6250780851",
                "kilometers_per_hour": "67050.281106441",
                "miles_per_hour": "41662.4371686105"
            },
            "miss_distance": {
                "astronomical": "0.3180062249",
                "lunar": "123.7044214861",
                "kilometers": "47573053.891780963",
                "miles": "29560524.9485967694"
            },
            "orbiting_body": "Earth"
        },
        {
            "close_approach_date": "2137-03-24",
            "close_approach_date_full": "2137-Mar-24 16:11",
            "epoch_date_close_approach": 5277197460000,
            "relative_velocity": {
                "kilometers_per_second": "15.1285668678",
                "kilometers_per_hour": "54462.840724143",
                "miles_per_hour": "33841.091226621"
            },
            "miss_distance": {
                "astronomical": "0.0330868164",
                "lunar": "12.8707715796",
                "kilometers": "4949717.258521068",
                "miles": "3075611.6864360184"
            },
            "orbiting_body": "Earth"
        }
    ],
    "orbital_data": {
        "orbit_id": "1",
        "orbit_determination_date": "2020-02-09 07:12:08",
        "first_observation_date": "2020-02-05",
        "last_observation_date": "2020-02-08",
        "data_arc_in_days": 3,
        "observations_used": 13,
        "orbit_uncertainty": "9",
        "minimum_orbit_intersection": ".03081",
        "jupiter_tisserand_invariant": "6.774",
        "epoch_osculation": "2458885.5",
        "eccentricity": ".2806837399626629",
        "semi_major_axis": ".8556345925328019",
        "inclination": "27.14440700167798",
        "ascending_node_longitude": "1.009128141961169",
        "orbital_period": "289.0885750593601",
        "perihelion_distance": ".6154718750592659",
        "perihelion_argument": "50.16831870416529",
        "aphelion_distance": "1.095797310006338",
        "perihelion_time": "2458808.890206872366",
        "mean_anomaly": "95.40164470451727",
        "mean_motion": "1.245293072983183",
        "equinox": "J2000",
        "orbit_class": {
            "orbit_class_type": "ATE",
            "orbit_class_description": "Near-Earth asteroid orbits similar to that of 2062 Aten",
            "orbit_class_range": "a (semi-major axis) < 1.0 AU; q (perihelion) > 0.983 AU"
        }
    },
    "is_sentry_object": false
}